{"roadId":0, "street":"Avenue de la Gare", "sensorsIdList":[17, 15], "postalCode":75008, "city":"Reims", "startPosition":[48.85996365023169, 2.324742652948564], "endPosition":[48.87243447440469, 2.339738932822157]}
{"roadId":1, "street":"Route de Lyon", "sensorsIdList":[33, 11], "postalCode":46092, "city":"Lille", "startPosition":[48.87243447440469, 2.339738932822157], "endPosition":[48.86122343493158, 2.339753012396077]}
{"roadId":2, "street":"La place de la Fontaine", "sensorsIdList":[32, 6], "postalCode":94023, "city":"Reims", "startPosition":[48.86122343493158, 2.339753012396077], "endPosition":[48.86380890554871, 2.342175031521565]}
{"roadId":3, "street":"Avenue de la Gare", "sensorsIdList":[5, 39], "postalCode":46092, "city":"Bordeaux", "startPosition":[48.86380890554871, 2.342175031521565], "endPosition":[48.86597325970584, 2.3297035416018788]}
{"roadId":4, "street":"Route de Lyon", "sensorsIdList":[8, 37], "postalCode":46092, "city":"Bordeaux", "startPosition":[48.86597325970584, 2.3297035416018788], "endPosition":[48.8564211554685, 2.3387414621713414]}
{"roadId":5, "street":"La place de la Fontaine", "sensorsIdList":[27, 28], "postalCode":94023, "city":"Paris", "startPosition":[48.8564211554685, 2.3387414621713414], "endPosition":[48.86869165386995, 2.329008524086546]}
{"roadId":6, "street":"Avenue de la Gare", "sensorsIdList":[16, 7], "postalCode":94023, "city":"Lille", "startPosition":[48.86869165386995, 2.329008524086546], "endPosition":[48.86974863141207, 2.342852810868327]}
{"roadId":7, "street":"Avenue de la Gare", "sensorsIdList":[23, 36], "postalCode":94023, "city":"Reims", "startPosition":[48.86974863141207, 2.342852810868327], "endPosition":[48.859890000881805, 2.326250065506364]}
{"roadId":8, "street":"Avenue de la Gare", "sensorsIdList":[24, 25], "postalCode":94023, "city":"Paris", "startPosition":[48.859890000881805, 2.326250065506364], "endPosition":[48.86463724675803, 2.33589537927347]}
{"roadId":9, "street":"La place de la Fontaine", "sensorsIdList":[1, 38], "postalCode":94023, "city":"Reims", "startPosition":[48.86463724675803, 2.33589537927347], "endPosition":[48.87383206032292, 2.3421244163859183]}
{"roadId":10, "street":"La place de la Fontaine", "sensorsIdList":[9, 10], "postalCode":75008, "city":"Bordeaux", "startPosition":[48.87383206032292, 2.3421244163859183], "endPosition":[48.85938011071155, 2.328677205532631]}
{"roadId":11, "street":"Route de Lyon", "sensorsIdList":[31, 35], "postalCode":75008, "city":"Bordeaux", "startPosition":[48.85938011071155, 2.328677205532631], "endPosition":[48.8660012514406, 2.324879012586793]}
{"roadId":12, "street":"Ruelle Sainte Barbe", "sensorsIdList":[14, 20], "postalCode":94023, "city":"Reims", "startPosition":[48.8660012514406, 2.324879012586793], "endPosition":[48.873974780069766, 2.3315851897285214]}
{"roadId":13, "street":"Route de Lyon", "sensorsIdList":[2, 12], "postalCode":94023, "city":"Lille", "startPosition":[48.873974780069766, 2.3315851897285214], "endPosition":[48.861643074648576, 2.3253559749958397]}
{"roadId":14, "street":"Ruelle Sainte Barbe", "sensorsIdList":[18, 19], "postalCode":75008, "city":"Reims", "startPosition":[48.861643074648576, 2.3253559749958397], "endPosition":[48.87362412438044, 2.324827301452754]}
{"roadId":15, "street":"Route de Lyon", "sensorsIdList":[3, 34], "postalCode":21760, "city":"Lille", "startPosition":[48.87362412438044, 2.324827301452754], "endPosition":[48.861089631224, 2.3249888127386864]}
{"roadId":16, "street":"Ruelle Sainte Barbe", "sensorsIdList":[22, 21], "postalCode":75008, "city":"Lille", "startPosition":[48.861089631224, 2.3249888127386864], "endPosition":[48.86178743698492, 2.324053314418651]}
{"roadId":17, "street":"Route de Lyon", "sensorsIdList":[29, 13], "postalCode":75008, "city":"Reims", "startPosition":[48.86178743698492, 2.324053314418651], "endPosition":[48.863616664157156, 2.3234122199816176]}
{"roadId":18, "street":"Avenue de la Gare", "sensorsIdList":[4, 26], "postalCode":46092, "city":"Lille", "startPosition":[48.863616664157156, 2.3234122199816176], "endPosition":[48.868748302987036, 2.333906240435328]}
{"roadId":19, "street":"Route de Lyon", "sensorsIdList":[0, 30], "postalCode":46092, "city":"Paris", "startPosition":[48.868748302987036, 2.333906240435328], "endPosition":[48.8700772640666, 2.3396286011344536]}
